ORBCOMM FM37            
1 33064U 08031E   25034.82750387  .00003351  00000+0  47821-3 0  9998
2 33064  48.4381 257.2665 0006077 163.8884 299.2633 14.78869669894624
ORBCOMM FM40            
1 33065U 08031F   25034.71861229  .00004567  00000+0  61194-3 0  9994
2 33065  48.4400 243.9396 0007590 174.6858 224.9232 14.80861694894816
VESSELSAT 1             
1 37840U 11058C   25034.54351301  .00000503  00000+0  12947-3 0  9996
2 37840  19.9603 182.5399 0013651 156.1789 203.9248 14.11303599687401
ORBCOMM FM109           
1 40086U 14040A   25034.21500557  .00001752  00000+0  41615-3 0  9990
2 40086  47.0039 288.8542 0001374  78.2812 281.8227 14.57763206561512
ORBCOMM FM107           
1 40087U 14040B   25034.11235488  .00001662  00000+0  39616-3 0  9996
2 40087  47.0057 290.3477 0001205  15.1126 344.9795 14.57824951561571
ORBCOMM FM106           
1 40088U 14040C   25034.73863185  .00002862  00000+0  51564-3 0  9995
2 40088  47.0592 120.0984 0016949 171.5475 188.5704 14.68830385564062
ORBCOMM FM111           
1 40089U 14040D   25034.33384890  .00006576  00000+0  77952-3 0  9998
2 40089  47.0033 349.9779 0030982 273.0736  86.6616 14.85019769570328
ORBCOMM FM104           
1 40090U 14040E   25034.29854587  .00001739  00000+0  42628-3 0  9998
2 40090  47.0066 321.4879 0017065 313.0617  46.8838 14.56277362561105
